1 28474U 04045A   18120.22495701 -.00000041  00000-0  00000+0 0  9995
2 28474  54.4358  84.6689 0181209 253.4390 288.5021  2.00557278 98856
1 28474U 04045A   18120.33458956 -.00000041  00000-0  00000-0 0  9999
2 28474  54.4359  84.6644 0181211 253.4423   7.6570  2.00557275 98865
1 28474U 04045A   18120.69350196 -.00000041  00000-0  00000-0 0  9995
2 28474  54.4361  84.6497 0181214 253.4476 266.7972  2.00557257 98870
1 28474U 04045A   18121.46369787 -.00000040  00000-0  00000+0 0  9995
2 28474  54.4366  84.6181 0181217 253.4636 102.8859  2.00557222 98883
1 28474U 04045A   18121.82260310 -.00000038  00000-0  00000-0 0  9995
2 28474  54.4368  84.6034 0181231 253.4699   2.0199  2.00557208 98890
1 28474U 04045A   18122.00383088 -.00000037  00000-0  00000+0 0  9992
2 28474  54.4369  84.5960 0181229 253.4717 132.8699  2.00557196 98899
1 28474U 04045A   18122.83362250 -.00000033  00000-0  00000-0 0  9998
2 28474  54.4374  84.5620 0181236 253.4889  11.9869  2.00557153 98918
1 28474U 04045A   18123.30787870 -.00000029  00000-0  00000+0 0  9994
2 28474  54.4377  84.5426 0181237 253.4975 354.4052  2.00557127 98912
1 28474U 04045A   18124.31962003 -.00000022  00000-0  00000+0 0  9992
2 28474  54.4384  84.5012 0181237 253.5158   4.8939  2.00557064 98937
1 28474U 04045A   18124.71196297 -.00000019  00000-0  00000-0 0  9997
2 28474  54.4387  84.4851 0181241 253.5213 288.1714  2.00557038 98958
1 28474U 04045A   18125.33343314 -.00000014  00000-0  00000+0 0  9994
2 28474  54.4390  84.4596 0181236 253.5337  16.8785  2.00556994 98964
1 28474U 04045A   18126.03718900 -.00000010  00000-0  00000+0 0  9995
2 28474  54.4395  84.4308 0181235 253.5428 165.0014  2.00556938 98971
1 28474U 04045A   18127.29416569 -.00000004  00000-0  00000+0 0  9993
2 28474  54.4403  84.3794 0181246 253.5684 352.5490  2.00556835 99007
1 28474U 04045A   18127.83034785 -.00000002  00000-0  00000-0 0  9998
2 28474  54.4406  84.3574 0181246 253.5783  19.6777  2.00556786 99011
1 28474U 04045A   18128.01077243 -.00000002  00000-0  00000+0 0  9994
2 28474  54.4407  84.3500 0181240 253.5781 149.9496  2.00556767 99017
1 28474U 04045A   18128.77820396 -.00000001  00000-0  00000-0 0  9992
2 28474  54.4412  84.3186 0181251 253.5959 344.0389  2.00556697 99035
1 28474U 04045A   18129.19899097 -.00000001  00000-0  00000+0 0  9992
2 28474  54.4414  84.3014 0181256 253.6023 287.8524  2.00556656 99046
1 28474U 04045A   18129.78914421 -.00000002  00000-0  00000-0 0  9998
2 28474  54.4418  84.2772 0181252 253.6154 353.9465  2.00556598 99056
1 28474U 04045A   18130.43771747 -.00000003  00000-0  00000+0 0  9994
2 28474  54.4422  84.2506 0181243 253.6254 102.2242  2.00556531 99063
1 28474U 04045A   18130.80400420 -.00000003  00000-0  00000-0 0  9993
2 28474  54.4424  84.2357 0181251 253.6347   6.6840  2.00556496 99073
1 28474U 04045A   18131.44288972 -.00000005  00000-0  00000+0 0  9991
2 28474  54.4428  84.2095 0181242 253.6442 107.9674  2.00556430 99081
1 28474U 04045A   18131.81719397 -.00000006  00000-0  00000-0 0  9994
2 28474  54.4430  84.1942 0181246 253.6539  18.2155  2.00556393 99092
1 28474U 04045A   18132.29174080 -.00000008  00000-0  00000+0 0  9992
2 28474  54.4434  84.1748 0181244 253.6625   0.8426  2.00556346 99090
1 28474U 04045A   18132.82732359 -.00000009  00000-0  00000-0 0  9992
2 28474  54.4437  84.1528 0181241 253.6718  27.5384  2.00556292 99111
1 28474U 04045A   18133.00154757 -.00000010  00000-0  00000+0 0  9994
2 28474  54.4438  84.1457 0181242 253.6711 153.3334  2.00556274 99110
1 28474U 04045A   18133.68599652 -.00000012  00000-0  00000-0 0  9998
2 28474  54.4442  84.1176 0181249 253.6857 287.5092  2.00556208 99131
1 28474U 04045A   18134.31269016 -.00000014  00000-0  00000+0 0  9998
2 28474  54.4446  84.0920 0181240 253.6977  19.9867  2.00556147 99145
1 28474U 04045A   18134.79059142 -.00000014  00000-0  00000-0 0  9998
2 28474  54.4449  84.0724 0181242 253.7062   5.0355  2.00556102 99158
1 28474U 04045A   18135.26011618 -.00000015  00000-0  00000+0 0  9997
2 28474  54.4452  84.0532 0181244 253.7141 344.0367  2.00556058 99169
1 28474U 04045A   18135.79814444 -.00000015  00000-0  00000-0 0  9994
2 28474  54.4456  84.0311 0181243 253.7231  12.4981  2.00556008 99171
1 28474U 04045A   18136.27418465 -.00000015  00000-0  00000+0 0  9990
2 28474  54.4459  84.0116 0181247 253.7314 356.2031  2.00555966 99181
1 28474U 04045A   18136.74913124 -.00000015  00000-0  00000-0 0  9995
2 28474  54.4462  83.9921 0181249 253.7394 339.1187  2.00555925 99195
1 28474U 04045A   18137.28595712 -.00000015  00000-0  00000+0 0  9993
2 28474  54.4465  83.9701 0181249 253.7489   6.7114  2.00555880 99208
1 28474U 04045A   18138.17286000 -.00000014  00000-0  00000+0 0  9998
2 28474  54.4470  83.9338 0181259 253.7634 287.0632  2.00555808 99224
1 28474U 04045A   18139.23938160 -.00000013  00000-0  00000+0 0  9996
2 28474  54.4477  83.8901 0181258 253.7826 337.0994  2.00555727 99247
1 28474U 04045A   18139.78608307 -.00000013  00000-0  00000-0 0  9994
2 28474  54.4480  83.8677 0181260 253.7919  11.8222  2.00555689 99256
1 28474U 04045A   18140.41675980 -.00000015  00000-0  00000+0 0  9998
2 28474  54.4484  83.8418 0181263 253.8011 107.1774  2.00555646 99265
1 28474U 04045A   18140.79785567 -.00000016  00000-0  00000-0 0  9994
2 28474  54.4486  83.8262 0181265 253.8095  22.3295  2.00555622 99279
1 28474U 04045A   18141.19360647 -.00000018  00000-0  00000+0 0  9998
2 28474  54.4489  83.8100 0181273 253.8165 308.0643  2.00555598 99284
1 28474U 04045A   18141.81162190 -.00000022  00000-0  00000+0 0  9995
2 28474  54.4492  83.7846 0181270 253.8265  34.2767  2.00555561 99298
1 28474U 04045A   18141.81162190 -.00000022  00000-0  00000-0 0  9996
2 28474  54.4492  83.7846 0181270 253.8265  34.2767  2.00555561 99298
1 28474U 04045A   18142.76048957 -.00000030  00000-0  00000-0 0  9994
2 28474  54.4498  83.7458 0181270 253.8411 359.3675  2.00555509 99310
1 28474U 04045A   18143.29740747 -.00000036  00000-0  00000+0 0  9994
2 28474  54.4501  83.7238 0181271 253.8493  27.0270  2.00555480 99321
1 28474U 04045A   18143.69326459 -.00000040  00000-0  00000-0 0  9994
2 28474  54.4504  83.7076 0181274 253.8552 312.8394  2.00555459 99332
1 28474U 04045A   18144.30763360 -.00000047  00000-0  00000+0 0  9995
2 28474  54.4507  83.6824 0181272 253.8644  36.4194  2.00555429 99340
1 28474U 04045A   18144.78664833 -.00000052  00000-0  00000-0 0  9999
2 28474  54.4510  83.6628 0181275 253.8715  22.2722  2.00555406 99354
1 28474U 04045A   18145.25870763 -.00000056  00000-0  00000+0 0  9996
2 28474  54.4513  83.6434 0181274 253.8784   3.1033  2.00555385 99367
1 28474U 04045A   18145.90976534 -.00000062  00000-0  00000-0 0  9999
2 28474  54.4517  83.6168 0181273 253.8853 113.1753  2.00555354 99380
1 28474U 04045A   18146.26905630 -.00000064  00000-0  00000+0 0  9999
2 28474  54.4519  83.6021 0181276 253.8918  12.5852  2.00555340 99382
1 28474U 04045A   18146.87051627 -.00000068  00000-0  00000-0 0  9999
2 28474  54.4523  83.5775 0181274 253.8995  86.8456  2.00555312 99399
1 28474U 04045A   18147.28505807 -.00000069  00000-0  00000+0 0  9999
2 28474  54.4525  83.5605 0181278 253.9064  26.1475  2.00555297 99407
1 28474U 04045A   18147.28505807 -.00000069  00000-0  00000-0 0  9990
2 28474  54.4525  83.5605 0181278 253.9064  26.1475  2.00555297 99407
1 28474U 04045A   18147.84779875 -.00000070  00000-0  00000-0 0  9992
2 28474  54.4529  83.5375 0181276 253.9142  72.4514  2.00555271 99411
1 28474U 04045A   18148.22061201 -.00000070  00000-0  00000+0 0  9991
2 28474  54.4531  83.5222 0181279 253.9194 341.6259  2.00555256 99426
1 28474U 04045A   18148.88683427 -.00000068  00000-0  00000-0 0  9991
2 28474  54.4535  83.4949 0181276 253.9287 102.6442  2.00555223 99439
1 28474U 04045A   18149.30645931 -.00000067  00000-0  00000+0 0  9995
2 28474  54.4537  83.4777 0181280 253.9354  45.6164  2.00555206 99449
1 28474U 04045A   18149.90249611 -.00000063  00000-0  00000-0 0  9993
2 28474  54.4541  83.4533 0181278 253.9432 115.9606  2.00555174 99466
1 28474U 04045A   18150.25163941 -.00000061  00000-0  00000+0 0  9991
2 28474  54.4543  83.4390 0181282 253.9495   8.0436  2.00555159 99469
1 28474U 04045A   18150.96897376 -.00000056  00000-0  00000-0 0  9990
2 28474  54.4547  83.4097 0181280 253.9573 165.9671  2.00555117 99482
1 28474U 04045A   18151.26813028 -.00000054  00000-0  00000+0 0  9993
2 28474  54.4549  83.3974 0181279 253.9637  21.9584  2.00555102 99484
1 28474U 04045A   18151.80293925 -.00000050  00000-0  00000+0 0  9997
2 28474  54.4552  83.3755 0181276 253.9707  48.0953  2.00555069 99493
1 28474U 04045A   18151.80293925 -.00000050  00000-0  00000-0 0  9998
2 28474  54.4552  83.3755 0181276 253.9707  48.0953  2.00555069 99493
1 28474U 04045A   18152.82654644 -.00000043  00000-0  00000-0 0  9992
2 28474  54.4558  83.3336 0181273 253.9841  67.1487  2.00555001 99513
1 28474U 04045A   18153.12540228 -.00000041  00000-0  00000+0 0  9995
2 28474  54.4560  83.3214 0181281 253.9867 282.9265  2.00554981 99515
1 28474U 04045A   18153.76922387 -.00000037  00000-0  00000-0 0  9991
2 28474  54.4563  83.2950 0181273 253.9972  27.7691  2.00554932 99538
1 28474U 04045A   18154.12083226 -.00000035  00000-0  00000+0 0  9999
2 28474  54.4566  83.2807 0181281 254.0004 281.6347  2.00554905 99538
1 28474U 04045A   18154.90537552 -.00000033  00000-0  00000-0 0  9990
2 28474  54.4570  83.2485 0181268 254.0107 128.0813  2.00554836 99562
1 28474U 04045A   18155.17720396 -.00000032  00000-0  00000+0 0  9998
2 28474  54.4572  83.2374 0181278 254.0166 324.3413  2.00554816 99562
1 28474U 04045A   18156.26979512 -.00000031  00000-0  00000+0 0  9994
2 28474  54.4578  83.1927 0181272 254.0337  33.1979  2.00554714 99586
1 28474U 04045A   18156.83913832 -.00000031  00000-0  00000-0 0  9991
2 28474  54.4582  83.1694 0181270 254.0414  84.2678  2.00554659 99598
